2022-133B               
1 54043U 22133B   22299.26711990  .00009598  00000+0  38528-3 0  9995
2 54043  35.0002 214.4797 0009896  29.1914 108.8448 15.24170699  1750
2022-133C               
1 54044U 22133C   22299.46244030  .00024744  00000+0  95650-3 0  9993
2 54044  34.9992 213.1816 0007907  14.9554 142.2613 15.25294530  1789
2022-133D               
1 54045U 22133D   22299.26406964  .00012946  00000+0  51838-3 0  9999
2 54045  34.9984 214.4514 0012721  25.4277 113.5831 15.24174434  1758
2022-133E               
1 54046U 22133E   22299.46774457 -.00009770  00000+0 -38906-3 0  9991
2 54046  34.9999 213.2213 0007147 359.0097 158.1978 15.24285352  1782
2022-134A               
1 54048U 22134A   22299.02533676  .00000048  00000+0  00000+0 0  9999
2 54048  24.0553 298.2632 7878471 184.0172  51.5059  1.25137497   137
2022-134B               
1 54049U 22134B   22298.25988452 -.00000177  00000+0 -14034-2 0  9990
2 54049  26.7897 299.0201 8047896 183.1613 162.7318  1.34295609   132
COSMOS 2560             
1 54050U 22135A   22299.41596066  .00161350  00000+0  82915-3 0  9991
2 54050  96.3486  26.5737 0012180 206.6327 212.0122 15.80678654  1663
STARLINK A              
1 54051U 22136A   22299.58334491 -.01294512  46816-3 -47277-2 0  9993
2 54051  53.2174 118.6372 0021871  56.4294  11.2209 15.87363609  1448
STARLINK B              
1 54052U 22136B   22299.58334491 -.00046153  11629-4 -13878-3 0  9995
2 54052  53.2163 118.6278 0031347  77.0785 355.0666 15.89166805  1442
STARLINK C              
1 54053U 22136C   22299.58334491 -.01365702  51640-3 -49774-2 0  9990
2 54053  53.2174 118.6367 0021838  56.0810  11.8945 15.87418511  1443
STARLINK D              
1 54054U 22136D   22299.58334491 -.01285197  46230-3 -46811-2 0  9998
2 54054  53.2173 118.6341 0021664  56.0032  12.7393 15.87423727  1440
STARLINK E              
1 54055U 22136E   22299.58334491 -.01385783  53056-3 -50419-2 0  9994
2 54055  53.2174 118.6355 0021633  56.0702  12.4372 15.87464171  1449
STARLINK F              
1 54056U 22136F   22299.58334491 -.01280465  45923-3 -46578-2 0  9991
2 54056  53.2174 118.6335 0022167  56.4649  12.6974 15.87430026  1447
STARLINK G              
1 54057U 22136G   22299.58334491 -.01279764  45886-3 -46517-2 0  9993
2 54057  53.2174 118.6337 0022046  56.6030  12.7562 15.87449833  1442
STARLINK H              
1 54058U 22136H   22299.58334491 -.01272455  45421-3 -46203-2 0  9991
2 54058  53.2173 118.6319 0021831  56.0279  13.8859 15.87477707  1444
STARLINK J              
1 54059U 22136J   22299.25001157 -.01345818  50719-3 -46555-2 0  9996
2 54059  53.2174 120.3195 0024111  63.6109 259.4008 15.88366600  1396
STARLINK K              
1 54060U 22136K   22299.58334491 -.01131928  40016-3 -24292-2 0  9992
2 54060  53.2172 118.4150 0039699  62.4549 111.9322 15.96356144  1445
STARLINK L              
1 54061U 22136L   22299.58334491 -.01280506  45956-3 -46451-2 0  9999
2 54061  53.2174 118.6321 0021754  56.2155  13.9251 15.87501139  1445
STARLINK M              
1 54062U 22136M   22299.58334491 -.01277935  45793-3 -46336-2 0  9993
2 54062  53.2174 118.6311 0021658  56.0192  14.4384 15.87513715  1443
STARLINK N              
1 54063U 22136N   22299.58334491 -.01282415  46094-3 -46426-2 0  9998
2 54063  53.2174 118.6312 0021980  56.3630  14.3478 15.87533639  1443
STARLINK P              
1 54064U 22136P   22299.58334491 -.01288568  46773-3 -45175-2 0  9998
2 54064  53.2173 118.6062 0022029  56.4657  25.7453 15.88174532  1443
STARLINK Q              
1 54065U 22136Q   22299.58334491 -.01283251  46163-3 -46402-2 0  9990
2 54065  53.2174 118.6303 0021720  56.0548  15.1937 15.87567045  1449
STARLINK R              
1 54066U 22136R   22299.58334491 -.01278569  45849-3 -46274-2 0  9994
2 54066  53.2173 118.6303 0021736  55.8319  15.1494 15.87547724  1449
STARLINK S              
1 54067U 22136S   22299.58334491 -.01283326  46181-3 -46335-2 0  9990
2 54067  53.2174 118.6293 0021698  56.0881  15.7359 15.87598027  1441
STARLINK T              
1 54068U 22136T   22299.58334491 -.01278497  45858-3 -46304-2 0  9990
2 54068  53.2174 118.6292 0020472  60.5503  10.9899 15.87579693  1445
STARLINK U              
1 54069U 22136U   22299.58334491 -.01284466  46284-3 -46211-2 0  9995
2 54069  53.2174 118.6270 0021848  56.1133  16.7879 15.87664079  1445
STARLINK V              
1 54070U 22136V   22299.58334491 -.01283369  46191-3 -46309-2 0  9993
2 54070  53.2174 118.6283 0021560  56.0814  15.9976 15.87615134  1444
STARLINK W              
1 54071U 22136W   22299.58334491 -.01276651  45764-3 -45963-2 0  9990
2 54071  53.2173 118.6277 0021946  56.4590  16.1433 15.87644567  1443
STARLINK X              
1 54072U 22136X   22299.58334491 -.01278939  45907-3 -46126-2 0  9993
2 54072  53.2174 118.6278 0021422  55.8012  16.5323 15.87629560  1445
STARLINK Y              
1 54073U 22136Y   22299.58334491 -.01279932  46007-3 -45912-2 0  9992
2 54073  53.2174 118.6256 0022122  56.2415  17.4303 15.87712070  1449
STARLINK Z              
1 54074U 22136Z   22299.58334491 -.01288079  46530-3 -46343-2 0  9995
2 54074  53.2174 118.6263 0021305  55.8475  17.2908 15.87684116  1449
STARLINK AA             
1 54075U 22136AA  22299.58334491 -.01283803  46269-3 -46053-2 0  9993
2 54075  53.2174 118.6253 0021581  56.0508  17.8567 15.87732270  1447
STARLINK AB             
1 54076U 22136AB  22299.58334491 -.01288395  46557-3 -46303-2 0  9993
2 54076  53.2174 118.6258 0021485  55.7182  17.7069 15.87699724  1442
STARLINK AC             
1 54077U 22136AC  22299.58334491 -.01215896  41914-3 -43553-2 0  9996
2 54077  53.2177 118.6235 0021845  62.6501  12.0941 15.87739966  1443
STARLINK AD             
1 54078U 22136AD  22299.58334491 -.01208594  41449-3 -43349-2 0  9990
2 54078  53.2174 118.6239 0021694  59.6632  14.8396 15.87717778  1449
STARLINK AE             
1 54079U 22136AE  22299.58334491 -.01283516  46278-3 -45819-2 0  9997
2 54079  53.2174 118.6232 0022425  56.5915  18.3816 15.87797502  1445
STARLINK AF             
1 54080U 22136AF  22299.58334491 -.01278328  45915-3 -45752-2 0  9997
2 54080  53.2174 118.6243 0022465  56.3302  17.8861 15.87743316  1449
STARLINK AG             
1 54081U 22136AG  22299.58334491 -.01279449  46024-3 -45573-2 0  9996
2 54081  53.2174 118.6221 0022768  56.3766  19.1317 15.87827543  1442
STARLINK AH             
1 54082U 22136AH  22299.50001157 -.01293739  47051-3 -45605-2 0  9994
2 54082  53.2172 119.0431 0023038  57.3379 261.2532 15.88026921  1431
STARLINK AJ             
1 54083U 22136AJ  22299.58334491 -.01251692  44242-3 -44435-2 0  9994
2 54083  53.2174 118.6200 0023114  56.7874  19.7931 15.87876006  1447
STARLINK AK             
1 54084U 22136AK  22299.58334491 -.01283881  46324-3 -45707-2 0  9996
2 54084  53.2174 118.6212 0022532  56.3974  19.3452 15.87848002  1440
STARLINK AL             
1 54085U 22136AL  22299.58334491 -.01233645  43091-3 -43781-2 0  9998
2 54085  53.2174 118.6195 0023035  56.8129  20.0194 15.87882105  1430
STARLINK AM             
1 54086U 22136AM  22299.58334491 -.01250728  44167-3 -44529-2 0  9996
2 54086  53.2174 118.6207 0022482  56.2553  19.7878 15.87843212  1435
STARLINK AN             
1 54087U 22136AN  22299.58334491 -.01258036  44667-3 -44629-2 0  9993
2 54087  53.2174 118.6192 0022519  56.2322  20.8308 15.87914594  1437
STARLINK AP             
1 54088U 22136AP  22299.58334491 -.01233481  43067-3 -43895-2 0  9998
2 54088  53.2174 118.6202 0022477  56.6910  19.6102 15.87849495  1435
STARLINK AQ             
1 54089U 22136AQ  22299.58334491 -.01243064  43722-3 -44016-2 0  9991
2 54089  53.2174 118.6176 0022292  56.1861  21.5961 15.87957916  1434
STARLINK AR             
1 54090U 22136AR  22299.58334491 -.01273218  45671-3 -45088-2 0  9992
2 54090  53.2174 118.6176 0022427  56.0676  21.5272 15.87956014  1432
STARLINK AS             
1 54091U 22136AS  22299.58334491 -.01302470  47636-3 -45954-2 0  9991
2 54091  53.2175 118.6161 0022361  56.4451  22.2114 15.88037219  1431
STARLINK AT             
1 54092U 22136AT  22299.50001157 -.01166656  39000-3 -40994-2 0  9993
2 54092  53.2174 119.0390 0022808  57.2416 263.4520 15.88077649  1415
STARLINK AU             
1 54093U 22136AU  22299.58334491 -.01297594  47317-3 -45793-2 0  9990
2 54093  53.2174 118.6154 0021886  56.0793  22.8554 15.88049852  1430
STARLINK AV             
1 54094U 22136AV  22299.58334491 -.01269471  45439-3 -44872-2 0  9994
2 54094  53.2175 118.6167 0022623  56.0831  22.0721 15.87984709  1435
STARLINK AW             
1 54095U 22136AW  22299.58334491 -.01296033  47228-3 -45616-2 0  9994
2 54095  53.2174 118.6146 0022385  56.2751  23.1388 15.88083597  1437
STARLINK AX             
1 54096U 22136AX  22299.58334491 -.01298607  47372-3 -45849-2 0  9992
2 54096  53.2174 118.6162 0022416  56.2704  22.0809 15.88020802  1435
STARLINK AY             
1 54097U 22136AY  22299.58334491 -.01250899  44279-3 -43946-2 0  9993
2 54097  53.2174 118.6134 0022952  58.3883  21.5419 15.88090365  1433
STARLINK AZ             
1 54098U 22136AZ  22299.58334491 -.01299813  47490-3 -45700-2 0  9991
2 54098  53.2175 118.6138 0022344  55.8887  23.6753 15.88107218  1430
STARLINK BA             
1 54099U 22136BA  22299.58334491 -.01299158  47464-3 -45584-2 0  9995
2 54099  53.2174 118.6126 0022304  56.0479  24.4264 15.88149251  1432
STARLINK BB             
1 54100U 22136BB  22299.58334491 -.01296484  47250-3 -45714-2 0  9995
2 54100  53.2174 118.6146 0021936  56.0601  23.1432 15.88065121  1430
STARLINK BC             
1 54101U 22136BC  22299.58334491 -.01236318  43359-3 -43401-2 0  9993
2 54101  53.2175 118.6122 0022305  61.3491  19.4131 15.88128297  1431
STARLINK BD             
1 54102U 22136BD  22299.58334491 -.01301853  47638-3 -45679-2 0  9994
2 54102  53.2174 118.6125 0022646  56.3651  23.8182 15.88136147  1432
